YAOGAN 30 DEB
1 42676U 16029B   18312.42666181 +.00000341 +00000-0 +12312-3 0  9992
2 42676 098.0690 300.4556 0259197 028.6591 332.8557 14.22187923116466
YAOGAN 30 DEB
1 42677U 16029C   18311.15682323 +.00000341 +00000-0 +12543-3 0  9994
2 42677 097.9475 283.6356 0259489 016.0651 344.8565 14.21192874116325
GAOFEN 3 DEB
1 42678U 16049C   18312.26181959  .00000009  00000-0  15146-4 0  9993
2 42678  98.4073 321.7032 0009546 136.3611 223.8337 14.45303451112533
GAOFEN 3 DEB
1 42679U 16049D   18312.24799392  .00000006  00000-0  14280-4 0  9993
2 42679  98.4077 321.5861 0007597 136.9377 223.2410 14.45205618118421
GAOFEN 3 DEB
1 42680U 16049E   18312.53247577 +.00000249 +00000-0 +89478-4 0  9990
2 42680 098.3765 312.8405 0017590 232.7335 127.2251 14.41754088115278
KOREASAT 7
1 42691U 17023A   18312.54557170 -.00000370 +00000-0 +00000-0 0  9995
2 42691 000.0170 086.8642 0001769 122.0881 151.0641 01.00271082005522
SGDC
1 42692U 17023B   18312.07674108 -.00000258 +00000-0 +00000-0 0  9990
2 42692 000.0185 073.0455 0002061 145.8628 141.0769 01.00269690005574
ARIANE 5 R/B
1 42693U 17023C   18312.49270413 +.00002994 +00000-0 +75988-3 0  9996
2 42693 003.5040 142.7488 7276867 280.2200 011.8365 02.29151752012640
ARIANE 5 DEB (SYLDA)
1 42694U 17023D   18312.36181386 +.00021522 +00000-0 +40294-2 0  9992
2 42694 003.5123 129.0397 7082721 311.2452 006.4668 02.54194247013379
GSAT 9
1 42695U 17024A   18311.59955073 -.00000296 +00000-0 +00000-0 0  9995
2 42695 000.0799 275.9874 0001520 308.3352 135.6913 01.00268073005489
INMARSAT 5-F4
1 42698U 17025A   18311.83894467  .00000066  00000-0  00000+0 0  9998
2 42698   0.0399 107.8863 0000172 150.4141 101.7237  1.00269098  5417
FALCON 9 R/B
1 42699U 17025B   18312.12562163 -.00000239  00000-0  14411-2 0  9994
2 42699  25.4996 337.1073 8353796 313.0616   2.2409  1.02759776  5581
HAVELSAT
1 42700U 98067LH  18312.86745086  .00062735  00000-0  29658-3 0  9998
2 42700  51.6278 329.7672 0005463  63.1612 296.9949 15.82395966 84832
SOMP 2
1 42701U 98067LJ  18312.47944786 +.00059301 +00000-0 +31098-3 0  9990
2 42701 051.6342 334.7468 0005113 055.9351 304.2136 15.80173785084725
CXBN-2
1 42704U 98067LM  18312.42751469  .00067513  00000-0  32762-3 0  9995
2 42704  51.6307 333.6329 0004642  35.1274 325.0034 15.81811054 84663
PHOENIX
1 42706U 98067LP  18312.57626819 +.00033995 +00000-0 +21380-3 0  9994
2 42706 051.6299 336.9230 0003178 026.6607 333.4556 15.76372504084624
XCUBESAT
1 42707U 98067LQ  18312.43292445  .00083821  00000-0  35541-3 0  9991
2 42707  51.6289 330.5154 0005079  40.4957 319.6424 15.84590454 84684
QBEE50-LTU-OC
1 42708U 98067LR  18312.50762239 +.00065566 +00000-0 +31559-3 0  9994
2 42708 051.6291 332.6330 0003900 043.9081 316.2231 15.82002241084627
SES 15
1 42709U 17026A   18312.22714002 +.00000052 +00000-0 +00000-0 0  9998
2 42709 000.0160 276.4358 0001015 348.8699 094.6826 01.00271074006306
FREGAT R/B
1 42710U 17026B   18312.47502956 -.00000127 +00000-0 +00000-0 0  9994
2 42710 006.3285 079.0190 6235615 133.9363 298.5207 02.45436128013239
ALTAIR PATHFINDER
1 42711U 98067LS  18312.69764818  .00018288  00000-0  16087-3 0  9991
2 42711  51.6350 349.8272 0004505  15.4934 344.6199 15.68832771 84121
SHARC
1 42712U 98067LT  18312.51340760 +.00041888 +00000-0 +31269-3 0  9990
2 42712 051.6355 350.9099 0004049 022.0921 338.0251 15.72285293084335
ZA-AEROSAT
1 42713U 98067LU  18312.48368807 +.00037988 +00000-0 +25481-3 0  9994
2 42713 051.6342 341.5571 0003771 023.0297 337.0871 15.74835323084212
CSUNSAT 1
1 42715U 98067LW  18312.47829093 +.00040761 +00000-0 +25663-3 0  9999
2 42715 051.6338 340.0350 0005076 019.1512 340.9678 15.76248848084236
UPSAT
1 42716U 98067LX  18312.71028111  .01237261  11102-2  87922-3 0  9996
2 42716  51.6188 314.8638 0006421  71.8938 288.2777 16.15621203 84711
SPACECUBE
1 42717U 98067LY  18312.54687372 +.00063751 +00000-0 +30918-3 0  9994
2 42717 051.6248 332.8164 0004767 058.2873 301.8593 15.81845521083700
HOOPOE
1 42718U 98067LZ  18312.51615107 +.00145403 +19001-4 +44373-3 0  9999
2 42718 051.6251 325.0139 0006363 054.2680 305.8917 15.91666019083806
COSMOS 2518
1 42719U 17027A   18311.38180677 -.00000619  00000-0  00000+0 0  9990
2 42719  63.4092 232.0945 6772077 268.1125 194.9481  2.00589118 10657
FREGAT R/B
1 42720U 17027B   18309.73731983 -.00001064 +00000-0 +00000-0 0  9996
2 42720 063.6987 232.1050 6764759 267.0170 020.1809 02.01931870010682
NJUST-1
1 42722U 98067MB  18312.60664557  .00035412  00000-0  25554-3 0  9990
2 42722  51.6390 343.7311 0006085  52.6075  38.4048 15.73153305 83268
UNSW-ECO
1 42723U 98067MC  18312.40020231  .00254726  37381-4  55837-3 0  9998
2 42723  51.6356 323.6156 0008203  57.1132 303.0666 15.97615402 83492
LILACSAT-1
1 42725U 98067ME  18312.57800089  .00063414  00000-0  35427-3 0  9994
2 42725  51.6361 337.3869 0006042  49.3097  89.0116 15.78743380 83256
NSIGHT-1
1 42726U 98067MF  18312.51132898 +.00011792 +00000-0 +12577-3 0  9998
2 42726 051.6391 358.4542 0005691 051.9668 308.1840 15.64431389082979
SNUSAT-1
1 42727U 98067MG  18312.57054213  .00048609  00000-0  27538-3 0  9999
2 42727  51.6317 337.5486 0006909  33.0560 327.0872 15.78534958 83212
QBITO
1 42728U 98067MH  18312.33323474  .00078490  00000-0  36301-3 0  9991
2 42728  51.6332 333.8278 0004963  48.7064 311.4365 15.82781107 83082
AALTO-2
1 42729U 98067MJ  18312.51479274 +.00076219 +00000-0 +33287-3 0  9999
2 42729 051.6275 331.8964 0004939 049.2832 310.8599 15.84007475083130
SUSAT
1 42730U 98067MK  18312.60400770  .00051544  00000-0  27729-3 0  9994
2 42730  51.6334 335.5702 0004457  50.3592 309.7802 15.79674873 83084
I-INSPIRE II
1 42731U 98067ML  18312.47762893 +.00390729 +77804-4 +67182-3 0  9995
2 42731 051.6303 320.9695 0008036 050.2770 309.8947 16.01789040083310
POLYITAN-2-SAU
1 42732U 98067MM  18312.52824193 +.00078552 +00000-0 +33978-3 0  9997
2 42732 051.6305 331.2221 0006910 032.3451 327.7975 15.84181029083187
SNUSAT-1B
1 42733U 98067MN  18312.31824918  .00055327  00000-0  28976-3 0  9997
2 42733  51.6294 336.6228 0006942  27.7636 332.3735 15.80215203 83093
EXALTA-1
1 42734U 98067MP  18312.69856144  .00938128  54246-3  81420-3 0  9991
2 42734  51.6164 316.9592 0007572  65.3564 294.8239 16.12615033 83332
AOXIANG-1
1 42735U 98067MQ  18312.66016497  .00038762  00000-0  27140-3 0  9998
2 42735  51.6381 342.5296 0006233  53.4708  47.0887 15.73814050 84414
BEEAGLESAT
1 42736U 98067MR  18312.31496478  .00044441  00000-0  27084-3 0  9990
2 42736  51.6318 340.3926 0006528  47.7578 312.3975 15.76937576 83102
QZS-2
1 42738U 17028A   18312.24757213 -.00000261 +00000-0 +00000-0 0  9998
2 42738 043.9717 282.5880 0727159 272.6335 078.9665 01.00251304005292
H-2A R/B
1 42739U 17028B   18312.44601211  .00001665  00000-0  91793-3 0  9997
2 42739  31.5058 101.1773 7242846 109.4520 336.7635  2.31037582 12123
VIASAT 2
1 42740U 17029A   18312.06312782 -.00000273 +00000-0 +00000-0 0  9993
2 42740 000.0229 273.0652 0000087 142.3210 304.6145 01.00270351005349
EUTELSAT 172B
1 42741U 17029B   18312.39007569 -.00000013 +00000-0 +00000-0 0  9996
2 42741 000.0131 283.8281 0003918 347.4639 088.6894 01.00271810005866
ARIANE 5 R/B
1 42742U 17029C   18312.54267953 +.00000040 +00000-0 +14013-3 0  9990
2 42742 005.5541 221.9507 7264999 240.8251 029.9461 02.28453810011999
ARIANE 5 DEB (SYLDA)
1 42743U 17029D   18312.01213543  .00001799  00000-0  88833-3 0  9992
2 42743   5.5329 217.5443 7208668 250.4452  24.1113  2.35795286 12182
GSAT 19
1 42747U 17031A   18311.73682109 +.00000116 +00000-0 +00000-0 0  9994
2 42747 000.0562 095.4413 0001018 076.9308 187.6554 01.00273816005287
ECHOSTAR 21
1 42749U 17032A   18311.71927400 +.00000045 +00000-0 +00000-0 0  9992
2 42749 006.6274 316.2464 0001925 254.8150 105.0188 01.00270946005255
BREEZE-M R/B
1 42750U 17032B   18311.75287987 -.00000090  00000-0  00000+0 0  9997
2 42750  30.5534 191.4920 6646690 206.4937  93.3821  2.26360689 11756
BREEZE-M DEB (TANK)
1 42751U 17032C   18312.47551144 +.00001910 +00000-0 +33835-3 0  9994
2 42751 049.6768 170.1608 4649874 063.3665 336.6159 06.19828802032085
LEMUR 2 ANGELA
1 42752U 17019B   18312.80513022  .00002354  00000-0  93199-4 0  9993
2 42752  51.6387 115.9163 0010002   8.8184 351.2970 15.29605489 79248
LEMUR 2 JENNYBARNA
1 42753U 17019C   18312.66231955  .00002839  00000-0  10726-3 0  9992
2 42753  51.6391 115.0012 0009779   9.6707 350.4460 15.30397750 79197
LEMUR 2 ROBMOORE
1 42754U 17019D   18312.76750799  .00000690  00000-0  36244-4 0  9993
2 42754  51.6405 116.4030 0010121  11.5167 348.6043 15.29504406 79219
LEMUR 2 SPIROVISION
1 42755U 17019E   18312.77424777  .00002483  00000-0  95360-4 0  9995
2 42755  51.6401 114.7448 0009543  15.6341  90.7688 15.30394177 79129
HXMT
1 42758U 17034A   18312.90423611  .00000240  00000-0  28933-4 0  9997
2 42758  43.0189  12.8096 0010886 299.7279  50.8837 15.08445548 77275
ZHUHAI-1 02
1 42759U 17034B   18312.60699000  .00000209  00000-0  26414-4 0  9999
2 42759  43.0198  10.3653 0011478 291.4315 190.5396 15.09413002 77279
NUSAT-3
1 42760U 17034C   18312.90673611  .00000237  00000-0  28193-4 0  9991
2 42760  43.0185   9.4114 0010211 298.3726  52.6266 15.09285954 77316
ZHUHAI-1 01
1 42761U 17034D   18312.57999017  .00000280  00000-0  30707-4 0  9998
2 42761  43.0201  10.1869 0011787 292.8498 181.4059 15.09490061 77268
CHINASAT 9A
1 42763U 17035A   18312.27438226 -.00000322 +00000-0 +00000-0 0  9995
2 42763 000.0521 092.1688 0002237 021.0694 134.3673 01.00275431005793
CZ-3B R/B
1 42764U 17035B   18312.13999299  .00130934  56896-6  95404-3 0  9990
2 42764  25.6476 254.6103 4715604 137.3277 270.9844  6.28601327 28080
UCLSAT
1 42765U 17036A   18312.71492413  .00001338  00000-0  61244-4 0  9993
2 42765  97.3839  10.1235 0010124 292.8028  67.2138 15.22199191 76691
